H1 CPF  1  SGF 2022  2 13  2  5441 larets    
H2  0304206 5557    27944 2022  2 12  0  0  0 2022  2 17 23 57  0   180 1 1  0 0 0
H9
10 0 59623  41400.00000  0   -647200.610    771269.806   6986814.091
10 0 59623  41580.00000  0    441369.531   1582006.167   6866574.776
10 0 59623  41760.00000  0   1534104.617   2306781.558   6495695.431
10 0 59623  41940.00000  0   2588810.410   2919774.859   5887711.554
10 0 59623  42120.00000  0   3564033.154   3400284.047   5064754.843
10 0 59623  42300.00000  0   4420689.373   3733433.252   4056786.850
10 0 59623  42480.00000  0   5123644.354   3910642.406   2900550.182
10 0 59623  42660.00000  0   5643184.009   3929841.423   1638255.184
10 0 59623  42840.00000  0   5956297.511   3795409.087    316040.513
10 0 59623  43020.00000  0   6047709.285   3517839.991  -1017734.490
10 0 59623  43200.00000  0   5910600.756   3113151.031  -2314294.047
10 0 59623  43380.00000  0   5546984.118   2602059.768  -3526264.216
10 0 59623  43560.00000  0   4967713.238   2008980.026  -4609427.488
10 0 59623  43740.00000  0   4192132.083   1360883.549  -5524341.975
10 0 59623  43920.00000  0   3247381.964    686089.166  -6237753.537
10 0 59623  44100.00000  0   2167411.931     13041.975  -6723762.192
10 0 59623  44280.00000  0    991736.162   -630867.124  -6964712.789
10 0 59623  44460.00000  0   -236010.798  -1220398.022  -6951798.740
10 0 59623  44640.00000  0  -1469677.985  -1733435.719  -6685366.066
10 0 59623  44820.00000  0  -2662308.847  -2151812.886  -6174919.063
10 0 59623  45000.00000  0  -3767910.903  -2461957.365  -5438821.796
10 0 59623  45180.00000  0  -4743232.189  -2655345.203  -4503700.627
10 0 59623  45360.00000  0  -5549487.830  -2728741.622  -3403542.082
10 0 59623  45540.00000  0  -6153959.257  -2684213.974  -2178499.901
10 0 59623  45720.00000  0  -6531390.691  -2528910.899   -873440.987
10 0 59623  45900.00000  0  -6665105.939  -2274613.815    463720.238
10 0 59623  46080.00000  0  -6547780.474  -1937078.684   1783831.927
10 0 59623  46260.00000  0  -6181818.875  -1535201.322   3038378.655
10 0 59623  46440.00000  0  -5579313.459  -1090052.291   4181324.991
10 0 59623  46620.00000  0  -4761592.050   -623833.452   5170844.710
10 0 59623  46800.00000  0  -3758385.762   -158815.386   5970852.947
10 0 59623  46980.00000  0  -2606676.507    283690.542   6552295.559
10 0 59623  47160.00000  0  -1349272.644    684278.124   6894157.332
10 0 59623  47340.00000  0    -33182.241   1026269.461   6984165.976
10 0 59623  47520.00000  0   1292150.585   1296390.071   6819185.617
10 0 59623  47700.00000  0   2576690.268   1485274.181   6405303.224
10 0 59623  47880.00000  0   3771682.153   1587784.554   5757609.577
10 0 59623  48060.00000  0   4831497.369   1603137.392   4899677.457
10 0 59623  48240.00000  0   5715385.969   1534831.146   3862746.605
10 0 59623  48420.00000  0   6389082.688   1390382.319   2684625.969
10 0 59623  48600.00000  0   6826183.340   1180874.936   1408334.292
10 0 59623  48780.00000  0   7009230.334    920343.737     80529.196
10 0 59623  48960.00000  0   6930447.430    625020.870  -1250221.854
10 0 59623  49140.00000  0   6592079.022    312481.881  -2535255.926
10 0 59623  49320.00000  0   6006314.922       734.703  -3727628.593
10 0 59623  49500.00000  0   5194810.400   -292697.999  -4783851.091
10 0 59623  49680.00000  0   4187825.815   -551655.379  -5665474.931
10 0 59623  49860.00000  0   3023042.483   -762130.712  -6340462.823
10 0 59623  50040.00000  0   1744112.428   -912947.205  -6784310.667
10 0 59623  50220.00000  0    399005.291   -996286.505  -6980887.880
10 0 59623  50400.00000  0   -961783.185  -1008053.337  -6922988.211
10 0 59623  50580.00000  0  -2287105.105   -948062.007  -6612582.692
10 0 59623  50760.00000  0  -3527060.994   -820039.481  -6060769.798
10 0 59623  50940.00000  0  -4634867.045   -631444.130  -5287423.613
10 0 59623  51120.00000  0  -5568640.918   -393105.330  -4320542.070
10 0 59623  51300.00000  0  -6293037.149   -118695.065  -3195293.020
10 0 59623  51480.00000  0  -6780663.635    175950.906  -1952774.512
10 0 59623  51660.00000  0  -7013204.825    473634.456   -638520.457
10 0 59623  51840.00000  0  -6982185.108    756680.593    699200.495
10 0 59623  52020.00000  0  -6689315.288   1007859.909   2011214.588
10 0 59623  52200.00000  0  -6146410.729   1211298.011   3249313.959
10 0 59623  52380.00000  0  -5374878.250   1353322.059   4368087.401
10 0 59623  52560.00000  0  -4404801.957   1423198.165   5326617.726
10 0 59623  52740.00000  0  -3273692.046   1413723.299   6089974.164
10 0 59623  52920.00000  0  -2024967.096   1321646.011   6630455.400
10 0 59623  53100.00000  0   -706235.125   1147900.422   6928547.283
10 0 59623  53280.00000  0    632545.817    897644.614   6973568.398
10 0 59623  53460.00000  0   1940954.168    580105.073   6764008.645
10 0 59623  53640.00000  0   3169985.377    208234.343   6307563.257
10 0 59623  53820.00000  0   4273873.344   -201808.293   5620862.827
10 0 59623  54000.00000  0   5211796.468   -631337.456   4728899.173
10 0 59623  54180.00000  0   5949409.116  -1059959.991   3664157.359
10 0 59623  54360.00000  0   6460142.813  -1466500.025   2465469.555
10 0 59623  54540.00000  0   6726216.553  -1829990.768   1176616.168
10 0 59623  54720.00000  0   6739303.149  -2130686.585   -155277.507
10 0 59623  54900.00000  0   6500814.562  -2351046.886  -1481491.259
10 0 59623  55080.00000  0   6021783.111  -2476636.138  -2753531.497
10 0 59623  55260.00000  0   5322344.603  -2496893.658  -3924938.924
10 0 59623  55440.00000  0   4430857.322  -2405733.674  -4953001.343
10 0 59623  55620.00000  0   3382706.639  -2201949.509  -5800306.007
10 0 59623  55800.00000  0   2218855.508  -1889403.447  -6436069.233
10 0 59623  55980.00000  0    984220.955  -1476997.230  -6837209.253
10 0 59623  56160.00000  0   -274065.181   -978425.546  -6989140.137
10 0 59623  56340.00000  0  -1508442.486   -411724.913  -6886267.867
10 0 59623  56520.00000  0  -2672698.226    201368.828  -6532189.363
10 0 59623  56700.00000  0  -3723680.496    836238.066  -5939587.793
10 0 59623  56880.00000  0  -4622897.780   1466351.006  -5129829.268
10 0 59623  57060.00000  0  -5337960.831   2064351.412  -4132257.390
10 0 59623  57240.00000  0  -5843807.425   2603235.580  -2983185.786
10 0 59623  57420.00000  0  -6123650.896   3057561.213  -1724609.139
10 0 59623  57600.00000  0  -6169605.414   3404633.704   -402669.662
10 0 59623  57780.00000  0  -5982944.160   3625608.723    934069.231
10 0 59623  57960.00000  0  -5573966.162   3706446.215   2236468.630
10 0 59623  58140.00000  0  -4961471.407   3638662.488   3456686.625
10 0 59623  58320.00000  0  -4171881.496   3419840.188   4549987.956
10 0 59623  58500.00000  0  -3238055.331   3053870.497   5476410.291
10 0 59623  58680.00000  0  -2197869.829   2550923.352   6202218.408
10 0 59623  58860.00000  0  -1092636.020   1927151.246   6701098.359
10 0 59623  59040.00000  0     34570.550   1204143.118   6955055.119
10 0 59623  59220.00000  0   1140590.092    408157.695   6955005.351
10 0 59623  59400.00000  0   2183818.090   -430835.112   6701064.809
10 0 59623  59580.00000  0   3125753.192  -1280275.788   6202530.089
10 0 59623  59760.00000  0   3932410.026  -2106267.208   5477555.555
10 0 59623  59940.00000  0   4575552.827  -2874916.709   4552526.201
10 0 59623  60120.00000  0   5033705.147  -3553722.300   3461139.772
10 0 59623  60300.00000  0   5292900.119  -4112951.056   2243213.309
10 0 59623  60480.00000  0   5347130.316  -4526943.912    943241.862
10 0 59623  60660.00000  0   5198470.882  -4775284.613   -391236.122
10 0 59623  60840.00000  0   4856869.438  -4843772.804  -1711405.003
10 0 59623  61020.00000  0   4339608.497  -4725145.889  -2968996.308
10 0 59623  61200.00000  0   3670467.085  -4419511.639  -4118086.692
10 0 59623  61380.00000  0   2878629.090  -3934471.921  -5116790.404
10 0 59623  61560.00000  0   1997396.016  -3284934.677  -5928775.947
10 0 59623  61740.00000  0   1062774.647  -2492633.043  -6524550.131
10 0 59623  61920.00000  0    112004.426  -1585378.961  -6882485.213
10 0 59623  62100.00000  0   -817919.396   -596074.273  -6989559.773
10 0 59623  62280.00000  0  -1691667.274    438477.489  -6841800.799
10 0 59623  62460.00000  0  -2476901.816   1478920.662  -6444427.944
10 0 59623  62640.00000  0  -3145467.223   2484821.931  -5811697.292
10 0 59623  62820.00000  0  -3674408.805   3416229.057  -4966446.041
10 0 59623  63000.00000  0  -4046792.320   4235266.947  -3939332.261
10 0 59623  63180.00000  0  -4252282.317   4907706.047  -2767771.631
10 0 59623  63360.00000  0  -4287448.038   5404432.036  -1494602.455
10 0 59623  63540.00000  0  -4155784.931   5702748.059   -166517.189
10 0 59623  63720.00000  0  -3867438.028   5787436.817   1167689.032
10 0 59623  63900.00000  0  -3438635.559   5651515.667   2458973.027
10 0 59623  64080.00000  0  -2890858.086   5296640.544   3659916.585
10 0 59623  64260.00000  0  -2249788.531   4733133.578   4726516.084
10 0 59623  64440.00000  0  -1544111.545   3979648.000   5619812.456
10 0 59623  64620.00000  0   -804224.041   3062491.315   6307302.381
10 0 59623  64800.00000  0    -60922.216   2014645.590   6764079.125
10 0 59623  64980.00000  0    655873.890    874539.122   6973679.037
10 0 59623  65160.00000  0   1318312.880   -315381.723   6928623.753
10 0 59623  65340.00000  0   1901679.913  -1510229.356   6630654.304
10 0 59623  65520.00000  0   2385307.941  -2664355.793   6090659.486
10 0 59623  65700.00000  0   2753306.864  -3733086.274   5328298.456
10 0 59623  65880.00000  0   2995086.606  -4674449.082   4371320.199
10 0 59623  66060.00000  0   3105657.565  -5450839.972   3254594.281
10 0 59623  66240.00000  0   3085696.100  -6030556.198   2018869.910
10 0 59623  66420.00000  0   2941366.594  -6389128.093    709298.494
10 0 59623  66600.00000  0   2683908.524  -6510380.083   -626225.515
10 0 59623  66780.00000  0   2329007.797  -6387170.785  -1938846.576
99
